SL-16 R/B               
1 23405U 94077B   26160.70102502 -.00000249  00000+0 -10289-3 0  9992
2 23405  70.9805 158.9123 0002663 332.0301  28.0678 14.15572783629251
ARIANE 40+ R/B          
1 23561U 95021B   26160.69889220  .00000222  00000+0  84592-4 0  9990
2 23561  98.4411 230.8818 0005962 217.6946 259.2783 14.39829263632489
SL-16 R/B               
1 23705U 95058B   26160.78313022  .00000010  00000+0  29631-4 0  9990
2 23705  71.0215 346.9043 0013447 330.5193  29.5170 14.15505185580885
SL-16 R/B               
1 24298U 96051B   26160.73693321  .00000122  00000+0  92600-4 0  9990
2 24298  70.7636 340.4167 0014818 348.2014  11.8756 14.12443417534646
ORBVIEW 2 (SEASTAR)     
1 24883U 97037A   26160.70154756  .00000229  00000+0  95906-4 0  9996
2 24883  98.8682 327.5135 0002968 131.3540 228.7900 14.35549686521676
SL-16 R/B               
1 25400U 98043G   26160.78537770  .00000044  00000+0  37388-4 0  9994
2 25400  98.8360 114.8810 0010899 105.6722 254.5660 14.26067435452119
SL-16 R/B               
1 25407U 98045B   26160.81950110 -.00000045  00000+0  11995-5 0  9993
2 25407  71.0122 347.8247 0009523 250.7906 109.2187 14.16204941440149
ISS (ZARYA)             
1 25544U 98067A   26160.77141112  .00008018  00000+0  14987-3 0  9997
2 25544  51.6331 336.7972 0006862 151.7869 208.3493 15.49688427570608
CZ-4B R/B               
1 25732U 99025C   26160.74052000  .00000048  00000+0  43833-4 0  9993
2 25732  98.6486 202.7662 0038236  80.4560  31.4120 14.18282206401215
OKEAN-O                 
1 25860U 99039A   26160.71015306  .00000535  00000+0  76725-4 0  9992
2 25860  97.9317 219.5935 0001792  77.2648 282.8764 14.80458406448009
SL-16 R/B               
1 25861U 99039B   26160.73889211  .00000433  00000+0  61548-4 0  9993
2 25861  97.9841 219.6229 0013906 323.1131  36.9124 14.81837860450499
DELTA 2 R/B             
1 25876U 99041E   26160.67273057  .00000756  00000+0  15935-3 0  9996
2 25876  51.7662 293.8136 0500907 259.8017  94.6081 14.12002327376020
HELIOS 1B               
1 25977U 99064A   26160.71439687  .00001316  00000+0  14984-3 0  9997
2 25977  98.1622  65.6377 0002361 101.7678 258.3802 14.87987269698941
TERRA                   
1 25994U 99068A   26160.83634642  .00000339  00000+0  77920-4 0  9995
2 25994  97.9459 210.6738 0001032 222.6063 248.3946 14.61097233408530
SL-16 R/B               
1 26070U 00006B   26160.71751186 -.00000260  00000+0 -10795-3 0  9996
2 26070  71.0031 264.3311 0015140  34.7097 325.5011 14.15836114361584
TITAN 4B R/B            
1 26474U 00047B   26160.70861438  .00002767  00000+0  17350-3 0  9996
2 26474  67.9872 141.6230 0045579 294.7212  64.9196 15.10153550406807
ENVISAT                 
1 27386U 02009A   26160.80876933  .00000078  00000+0  39146-4 0  9997
2 27386  98.3831 112.2918 0001329  90.2747 327.2913 14.39063147272420
IDEFIX & ARIANE 42P R/B 
1 27422U 02021B   26160.78826186  .00000193  00000+0  90065-4 0  9999
2 27422  98.5942  98.3516 0010609 278.2307  81.7673 14.31078744257198
AQUA                    
1 27424U 02022A   26160.87314084  .00000703  00000+0  14963-3 0  9990
2 27424  98.4273 130.0100 0001396  53.5200  30.8393 14.62147028282208
CZ-4B R/B               
1 27432U 02024C   26160.75270941  .00000027  00000+0  36362-4 0  9998
2 27432  98.8702 213.6208 0051087 120.9369 351.2610 14.14563300242257
MIDORI II (ADEOS-II)    
1 27597U 02056A   26160.64788566  .00000239  00000+0  11162-3 0  9995
2 27597  98.7874 119.8438 0002229  87.4163 272.7273 14.29345523223435
H-2A R/B                
1 27601U 02056E   26160.75470319  .00000172  00000+0  74903-4 0  9996
2 27601  98.3309 117.7003 0068949 247.0529 176.2272 14.33818941227307
CZ-4B R/B               
1 28059U 03049C   26160.73598558  .00000283  00000+0  76521-4 0  9992
2 28059  98.6896 159.2859 0047213 311.8476  47.8694 14.55095207199980
CZ-2C R/B               
1 28222U 04012C   26160.74212705  .00097888  00000+0  58428-3 0  9995
2 28222  97.7085 235.5473 0008843 316.5960  43.4608 15.77562816218729
SL-16 R/B               
1 28353U 04021B   26160.73652763 -.00000263  00000+0 -11179-3 0  9996
2 28353  71.0019  39.3262 0007477 263.6317  96.3954 14.14611630135854
CZ-4B R/B               
1 28415U 04035C   26160.67964110  .00007145  00000+0  24128-3 0  9997
2 28415  97.3375 193.8381 0030834   5.1788 354.9766 15.30515854193972
CZ-2C R/B               
1 28480U 04046B   26160.68900241  .00000061  00000+0  38236-4 0  9993
2 28480  98.1950  69.9379 0138181 242.5931 116.1137 14.27024997121624
ARIANE 5 R/B            
1 28499U 04049H   26160.72061996  .00000711  00000+0  84349-4 0  9994
2 28499  98.2717 332.6856 0084930  53.3982 307.5007 14.85438732159456
CZ-2D R/B               
1 28738U 05024B   26160.50298324  .00051864  00000+0  45437-3 0  9996
2 28738  97.3494 179.5527 0004640  70.4712 289.7050 15.68719452154130
ALOS (DAICHI)           
1 28931U 06002A   26160.80745623  .00000965  00000+0  16902-3 0  9991
2 28931  98.1320 116.3980 0001727  60.1166 300.0212 14.70035492 87012
