OBJECT_NAME,OBJECT_ID,EPOCH,MEAN_MOTION,ECCENTRICITY,INCLINATION,RA_OF_ASC_NODE,ARG_OF_PERICENTER,MEAN_ANOMALY,EPHEMERIS_TYPE,CLASSIFICATION_TYPE,NORAD_CAT_ID,ELEMENT_SET_NO,REV_AT_EPOCH,BSTAR,MEAN_MOTION_DOT,MEAN_MOTION_DDOT
SL-16 R/B,1994-077B,2026-06-09T16:49:28.561728,14.15572783,.00026639,70.9805,158.9123,332.0301,28.0678,0,U,23405,999,62925,-.10289442E-3,-.249E-5,0
ARIANE 40+ R/B,1995-021B,2026-06-09T16:46:24.286080,14.39829263,.00059626,98.4411,230.8818,217.6946,259.2783,0,U,23561,999,63248,.84591693E-4,.222E-5,0
SL-16 R/B,1995-058B,2026-06-09T18:47:42.451008,14.15505185,.00134471,71.0215,346.9043,330.5193,29.5170,0,U,23705,999,58088,.29631251E-4,.1E-6,0
SL-16 R/B,1996-051B,2026-06-09T17:41:11.029344,14.12443417,.0014818,70.7636,340.4167,348.2014,11.8756,0,U,24298,999,53464,.92599938E-4,.122E-5,0
ORBVIEW 2 (SEASTAR),1997-037A,2026-06-09T16:50:13.709184,14.35549686,.00029689,98.8682,327.5135,131.3540,228.7900,0,U,24883,999,52167,.95906105E-4,.229E-5,0
SL-16 R/B,1998-043G,2026-06-09T18:50:56.633280,14.26067435,.00108991,98.8360,114.8810,105.6722,254.5660,0,U,25400,999,45211,.37388458E-4,.44E-6,0
SL-16 R/B,1998-045B,2026-06-09T19:40:04.895040,14.16204941,.0009523,71.0122,347.8247,250.7906,109.2187,0,U,25407,999,44014,.1199521E-5,-.45E-6,0
ISS (ZARYA),1998-067A,2026-06-09T18:30:49.920768,15.49688427,.00068623,51.6331,336.7972,151.7869,208.3493,0,U,25544,999,57060,.1498737E-3,.8018E-4,0
CZ-4B R/B,1999-025C,2026-06-09T17:46:20.928000,14.18282206,.00382362,98.6486,202.7662,80.4560,31.4120,0,U,25732,999,40121,.43832521E-4,.48E-6,0
OKEAN-O,1999-039A,2026-06-09T17:02:37.224384,14.80458406,.00017923,97.9317,219.5935,77.2648,282.8764,0,U,25860,999,44800,.76725349E-4,.535E-5,0
SL-16 R/B,1999-039B,2026-06-09T17:44:00.278304,14.81837860,.00139064,97.9841,219.6229,323.1131,36.9124,0,U,25861,999,45049,.61547551E-4,.433E-5,0
DELTA 2 R/B,1999-041E,2026-06-09T16:08:43.921248,14.12002327,.05009076,51.7662,293.8136,259.8017,94.6081,0,U,25876,999,37602,.15934722E-3,.756E-5,0
HELIOS 1B,1999-064A,2026-06-09T17:08:43.889568,14.87987269,.00023617,98.1622,65.6377,101.7678,258.3802,0,U,25977,999,69894,.14983552E-3,.1316E-4,0
TERRA,1999-068A,2026-06-09T20:04:20.330688,14.61097233,.00010329,97.9459,210.6738,222.6063,248.3946,0,U,25994,999,40853,.77920197E-4,.339E-5,0
SL-16 R/B,2000-006B,2026-06-09T17:13:13.024704,14.15836114,.00151402,71.0031,264.3311,34.7097,325.5011,0,U,26070,999,36158,-.10794593E-3,-.26E-5,0
TITAN 4B R/B,2000-047B,2026-06-09T17:00:24.282432,15.10153550,.00455793,67.9872,141.6230,294.7212,64.9196,0,U,26474,999,40680,.17349819E-3,.2767E-4,0
ENVISAT,2002-009A,2026-06-09T19:24:37.670112,14.39063147,.00013293,98.3831,112.2918,90.2747,327.2913,0,U,27386,999,27242,.39146311E-4,.78E-6,0
IDEFIX & ARIANE 42P R/B,2002-021B,2026-06-09T18:55:05.824704,14.31078744,.00106098,98.5942,98.3516,278.2307,81.7673,0,U,27422,999,25719,.90064904E-4,.193E-5,0
AQUA,2002-022A,2026-06-09T20:57:19.368576,14.62147028,.00013963,98.4273,130.0100,53.5200,30.8393,0,U,27424,999,28220,.14963171E-3,.703E-5,0
CZ-4B R/B,2002-024C,2026-06-09T18:03:54.093024,14.14563300,.00510871,98.8702,213.6208,120.9369,351.2610,0,U,27432,999,24225,.36361898E-4,.27E-6,0
MIDORI II (ADEOS-II),2002-056A,2026-06-09T15:32:57.321024,14.29345523,.00022299,98.7874,119.8438,87.4163,272.7273,0,U,27597,999,22343,.11162188E-3,.239E-5,0
H-2A R/B,2002-056E,2026-06-09T18:06:46.355616,14.33818941,.00689491,98.3309,117.7003,247.0529,176.2272,0,U,27601,999,22730,.74902856E-4,.172E-5,0
CZ-4B R/B,2003-049C,2026-06-09T17:39:49.154112,14.55095207,.00472139,98.6896,159.2859,311.8476,47.8694,0,U,28059,999,19998,.76520664E-4,.283E-5,0
CZ-2C R/B,2004-012C,2026-06-09T17:48:39.777120,15.77562816,.00088431,97.7085,235.5473,316.5960,43.4608,0,U,28222,999,21872,.58428347E-3,.97888E-3,0
SL-16 R/B,2004-021B,2026-06-09T17:40:35.987232,14.14611630,.00074777,71.0019,39.3262,263.6317,96.3954,0,U,28353,999,13585,-.11179408E-3,-.263E-5,0
CZ-4B R/B,2004-035C,2026-06-09T16:18:40.991040,15.30515854,.00308342,97.3375,193.8381,5.1788,354.9766,0,U,28415,999,19397,.24128006E-3,.7145E-4,0
CZ-2C R/B,2004-046B,2026-06-09T16:32:09.808224,14.27024997,.01381818,98.1950,69.9379,242.5931,116.1137,0,U,28480,999,12162,.38236436E-4,.61E-6,0
ARIANE 5 R/B,2004-049H,2026-06-09T17:17:41.564544,14.85438732,.00849302,98.2717,332.6856,53.3982,307.5007,0,U,28499,999,15945,.84349437E-4,.711E-5,0
CZ-2D R/B,2005-024B,2026-06-09T12:04:17.751936,15.68719452,.00046408,97.3494,179.5527,70.4712,289.7050,0,U,28738,999,15413,.45437102E-3,.51864E-3,0
ALOS (DAICHI),2006-002A,2026-06-09T19:22:44.218272,14.70035492,.0001727,98.1320,116.3980,60.1166,300.0212,0,U,28931,999,8701,.16902408E-3,.965E-5,0
